{
 "generated_at": "2026-07-18T07:00:39Z",
 "sources": [
  {
   "name": "CelesTrak",
   "url": "https://celestrak.org/NORAD/elements/",
   "license": "frei verfügbar; Attribution. Ursprünglich USSPACECOM/Space-Track."
  },
  {
   "name": "GCAT (J. McDowell, planet4589.org)",
   "url": "https://planet4589.org/space/gcat/",
   "license": "CC-BY 4.0"
  }
 ],
 "satellites": [
  {
   "norad": 46497,
   "name": "ICEYE-X6",
   "intl": "2020-068M",
   "group": "sar",
   "gcat": {
    "class": "B",
    "category": "IMG-R",
    "owner": "ICEYE",
    "state": "FI"
   },
   "omm": {
    "OBJECT_NAME": "ICEYE-X6",
    "OBJECT_ID": "2020-068M",
    "EPOCH": "2026-07-17T23:34:56.966592",
    "MEAN_MOTION": 15.04675769,
    "ECCENTRICITY": 0.00069883,
    "INCLINATION": 98.0993,
    "RA_OF_ASC_NODE": 194.1314,
    "ARG_OF_PERICENTER": 2.5061,
    "MEAN_ANOMALY": 357.6198,
    "EPHEMERIS_TYPE": 0,
    "CLASSIFICATION_TYPE": "U",
    "NORAD_CAT_ID": 46497,
    "ELEMENT_SET_NO": 999,
    "REV_AT_EPOCH": 31786,
    "BSTAR": 0.000098256623,
    "MEAN_MOTION_DOT": 0.00001314,
    "MEAN_MOTION_DDOT": 0
   }
  },
  {
   "norad": 66753,
   "name": "ICEYE-X60",
   "intl": "2025-276CR",
   "group": "sar",
   "gcat": {
    "class": "B",
    "category": "IMG-R",
    "owner": "ELKED",
    "state": "GR"
   },
   "omm": {
    "OBJECT_NAME": "ICEYE-X60",
    "OBJECT_ID": "2025-276CR",
    "EPOCH": "2026-07-17T04:28:41.297376",
    "MEAN_MOTION": 15.10704246,
    "ECCENTRICITY": 0.00022814,
    "INCLINATION": 97.4241,
    "RA_OF_ASC_NODE": 269.9598,
    "ARG_OF_PERICENTER": 357.96,
    "MEAN_ANOMALY": 2.162,
    "EPHEMERIS_TYPE": 0,
    "CLASSIFICATION_TYPE": "U",
    "NORAD_CAT_ID": 66753,
    "ELEMENT_SET_NO": 999,
    "REV_AT_EPOCH": 3489,
    "BSTAR": 0.00012354587,
    "MEAN_MOTION_DOT": 0.00001984,
    "MEAN_MOTION_DDOT": 0
   }
  },
  {
   "norad": 66754,
   "name": "ICEYE-X61",
   "intl": "2025-276CS",
   "group": "sar",
   "gcat": {
    "class": "B",
    "category": "IMG-R",
    "owner": "ARGUS/MON",
    "state": "PL"
   },
   "omm": {
    "OBJECT_NAME": "ICEYE-X61",
    "OBJECT_ID": "2025-276CS",
    "EPOCH": "2026-07-16T17:56:02.184000",
    "MEAN_MOTION": 15.18614124,
    "ECCENTRICITY": 0.00022128,
    "INCLINATION": 97.4193,
    "RA_OF_ASC_NODE": 270.6864,
    "ARG_OF_PERICENTER": 207.8838,
    "MEAN_ANOMALY": 152.2279,
    "EPHEMERIS_TYPE": 0,
    "CLASSIFICATION_TYPE": "U",
    "NORAD_CAT_ID": 66754,
    "ELEMENT_SET_NO": 999,
    "REV_AT_EPOCH": 3490,
    "BSTAR": 0.000079163093,
    "MEAN_MOTION_DOT": 0.00001571,
    "MEAN_MOTION_DDOT": 0
   }
  },
  {
   "norad": 66755,
   "name": "ICEYE-X62",
   "intl": "2025-276CT",
   "group": "sar",
   "gcat": {
    "class": "B",
    "category": "IMG-R",
    "owner": "ICEYE",
    "state": "FI"
   },
   "omm": {
    "OBJECT_NAME": "ICEYE-X62",
    "OBJECT_ID": "2025-276CT",
    "EPOCH": "2026-07-16T17:59:00.861792",
    "MEAN_MOTION": 15.10153672,
    "ECCENTRICITY": 0.00011291,
    "INCLINATION": 97.4179,
    "RA_OF_ASC_NODE": 269.0335,
    "ARG_OF_PERICENTER": 210.4552,
    "MEAN_ANOMALY": 149.6612,
    "EPHEMERIS_TYPE": 0,
    "CLASSIFICATION_TYPE": "U",
    "NORAD_CAT_ID": 66755,
    "ELEMENT_SET_NO": 999,
    "REV_AT_EPOCH": 3479,
    "BSTAR": 0.00018242548,
    "MEAN_MOTION_DOT": 0.00002915,
    "MEAN_MOTION_DDOT": 0
   }
  },
  {
   "norad": 67372,
   "name": "ICEYE-X63",
   "intl": "2026-004K",
   "group": "sar",
   "gcat": {
    "class": "B",
    "category": "IMG-R",
    "owner": "ICEYE",
    "state": "FI"
   },
   "omm": {
    "OBJECT_NAME": "ICEYE-X63",
    "OBJECT_ID": "2026-004K",
    "EPOCH": "2026-07-17T22:34:39.135936",
    "MEAN_MOTION": 14.88351835,
    "ECCENTRICITY": 0.00052464,
    "INCLINATION": 97.8015,
    "RA_OF_ASC_NODE": 197.1015,
    "ARG_OF_PERICENTER": 44.7224,
    "MEAN_ANOMALY": 315.4415,
    "EPHEMERIS_TYPE": 0,
    "CLASSIFICATION_TYPE": "U",
    "NORAD_CAT_ID": 67372,
    "ELEMENT_SET_NO": 999,
    "REV_AT_EPOCH": 2787,
    "BSTAR": 0.000054782395,
    "MEAN_MOTION_DOT": 0.00000453,
    "MEAN_MOTION_DDOT": 0
   }
  },
  {
   "norad": 67373,
   "name": "ICEYE-X64",
   "intl": "2026-004L",
   "group": "sar",
   "gcat": {
    "class": "D",
    "category": "IMG-R",
    "owner": "PUOL",
    "state": "FI"
   },
   "omm": {
    "OBJECT_NAME": "ICEYE-X64",
    "OBJECT_ID": "2026-004L",
    "EPOCH": "2026-07-17T22:08:55.119552",
    "MEAN_MOTION": 14.87991079,
    "ECCENTRICITY": 0.00071013,
    "INCLINATION": 97.8028,
    "RA_OF_ASC_NODE": 197.0019,
    "ARG_OF_PERICENTER": 46.8615,
    "MEAN_ANOMALY": 313.3194,
    "EPHEMERIS_TYPE": 0,
    "CLASSIFICATION_TYPE": "U",
    "NORAD_CAT_ID": 67373,
    "ELEMENT_SET_NO": 999,
    "REV_AT_EPOCH": 2786,
    "BSTAR": 0.000070507468,
    "MEAN_MOTION_DOT": 0.00000593,
    "MEAN_MOTION_DDOT": 0
   }
  },
  {
   "norad": 66300,
   "name": "ICEYE-X65",
   "intl": "2025-248H",
   "group": "sar",
   "gcat": {
    "class": "B",
    "category": "IMG-R",
    "owner": "SP42",
    "state": "UAE"
   },
   "omm": {
    "OBJECT_NAME": "ICEYE-X65",
    "OBJECT_ID": "2025-248H",
    "EPOCH": "2026-07-17T10:13:01.661088",
    "MEAN_MOTION": 15.07935989,
    "ECCENTRICITY": 0.0005696,
    "INCLINATION": 45.4068,
    "RA_OF_ASC_NODE": 335.1699,
    "ARG_OF_PERICENTER": 210.6035,
    "MEAN_ANOMALY": 149.4515,
    "EPHEMERIS_TYPE": 0,
    "CLASSIFICATION_TYPE": "U",
    "NORAD_CAT_ID": 66300,
    "ELEMENT_SET_NO": 999,
    "REV_AT_EPOCH": 4008,
    "BSTAR": 0.00011365,
    "MEAN_MOTION_DOT": 0.00001524,
    "MEAN_MOTION_DDOT": 0
   }
  },
  {
   "norad": 66301,
   "name": "ICEYE-X66",
   "intl": "2025-248J",
   "group": "sar",
   "gcat": {
    "class": "B",
    "category": "IMG-R",
    "owner": "SP42",
    "state": "UAE"
   },
   "omm": {
    "OBJECT_NAME": "ICEYE-X66",
    "OBJECT_ID": "2025-248J",
    "EPOCH": "2026-07-17T18:03:38.501280",
    "MEAN_MOTION": 15.09187062,
    "ECCENTRICITY": 0.0005415,
    "INCLINATION": 45.4025,
    "RA_OF_ASC_NODE": 332.5054,
    "ARG_OF_PERICENTER": 208.4694,
    "MEAN_ANOMALY": 151.5892,
    "EPHEMERIS_TYPE": 0,
    "CLASSIFICATION_TYPE": "U",
    "NORAD_CAT_ID": 66301,
    "ELEMENT_SET_NO": 999,
    "REV_AT_EPOCH": 4012,
    "BSTAR": 0.00011448983,
    "MEAN_MOTION_DOT": 0.00001596,
    "MEAN_MOTION_DDOT": 0
   }
  },
  {
   "norad": 66302,
   "name": "ICEYE-X67",
   "intl": "2025-248K",
   "group": "sar",
   "gcat": {
    "class": "B",
    "category": "IMG-R",
    "owner": "SP42",
    "state": "UAE"
   },
   "omm": {
    "OBJECT_NAME": "ICEYE-X67",
    "OBJECT_ID": "2025-248K",
    "EPOCH": "2026-07-17T18:39:13.904928",
    "MEAN_MOTION": 15.09168753,
    "ECCENTRICITY": 0.00069728,
    "INCLINATION": 45.406,
    "RA_OF_ASC_NODE": 331.9548,
    "ARG_OF_PERICENTER": 208.1995,
    "MEAN_ANOMALY": 151.851,
    "EPHEMERIS_TYPE": 0,
    "CLASSIFICATION_TYPE": "U",
    "NORAD_CAT_ID": 66302,
    "ELEMENT_SET_NO": 999,
    "REV_AT_EPOCH": 4014,
    "BSTAR": 0.00011938658,
    "MEAN_MOTION_DOT": 0.00001674,
    "MEAN_MOTION_DDOT": 0
   }
  },
  {
   "norad": 46496,
   "name": "ICEYE-X7",
   "intl": "2020-068L",
   "group": "sar",
   "gcat": {
    "class": "B",
    "category": "IMG-R",
    "owner": "ICEYE",
    "state": "FI"
   },
   "omm": {
    "OBJECT_NAME": "ICEYE-X7",
    "OBJECT_ID": "2020-068L",
    "EPOCH": "2026-07-17T23:22:18.137856",
    "MEAN_MOTION": 15.32131943,
    "ECCENTRICITY": 0.00063177,
    "INCLINATION": 97.7513,
    "RA_OF_ASC_NODE": 166.9165,
    "ARG_OF_PERICENTER": 201.5161,
    "MEAN_ANOMALY": 158.5815,
    "EPHEMERIS_TYPE": 0,
    "CLASSIFICATION_TYPE": "U",
    "NORAD_CAT_ID": 46496,
    "ELEMENT_SET_NO": 999,
    "REV_AT_EPOCH": 31950,
    "BSTAR": 0.00020202426,
    "MEAN_MOTION_DOT": 0.00006186,
    "MEAN_MOTION_DDOT": 0
   }
  }
 ]
}
