ICEYE-X7                
1 46496U 20068L   26198.97382104  .00006186  00000+0  20202-3 0  9994
2 46496  97.7513 166.9165 0006317 201.5161 158.5815 15.32131943319503
ICEYE-X6                
1 46497U 20068M   26198.98260378  .00001314  00000+0  98257-4 0  9998
2 46497  98.0993 194.1314 0006988   2.5061 357.6198 15.04675769317862
ICEYE-X65               
1 66300U 25248H   26198.42571367  .00001524  00000+0  11365-3 0  9997
2 66300  45.4068 335.1699 0005696 210.6035 149.4515 15.07935989 40080
ICEYE-X66               
1 66301U 25248J   26198.75252895  .00001596  00000+0  11449-3 0  9998
2 66301  45.4025 332.5054 0005415 208.4694 151.5892 15.09187062 40125
ICEYE-X67               
1 66302U 25248K   26198.77724427  .00001674  00000+0  11939-3 0  9997
2 66302  45.4060 331.9548 0006972 208.1995 151.8510 15.09168753 40144
ICEYE-X60               
1 66753U 25276CR  26198.18658909  .00001984  00000+0  12355-3 0  9991
2 66753  97.4241 269.9598 0002281 357.9600   2.1620 15.10704246 34892
ICEYE-X61               
1 66754U 25276CS  26197.74724750  .00001571  00000+0  79163-4 0  9994
2 66754  97.4193 270.6864 0002212 207.8838 152.2279 15.18614124 34906
ICEYE-X62               
1 66755U 25276CT  26197.74931553  .00002915  00000+0  18243-3 0  9990
2 66755  97.4179 269.0335 0001129 210.4552 149.6612 15.10153672 34791
ICEYE-X63               
1 67372U 26004K   26198.94073074  .00000453  00000+0  54782-4 0  9998
2 67372  97.8015 197.1015 0005246  44.7224 315.4415 14.88351835 27874
ICEYE-X64               
1 67373U 26004L   26198.92286018  .00000593  00000+0  70507-4 0  9999
2 67373  97.8028 197.0019 0007101  46.8615 313.3194 14.87991079 27860
